NORAD_CAT_ID,OBJECT_NAME,OBJECT_TYPE,EPOCH,MEAN_MOTION,ECCENTRICITY,INCLINATION,RA_OF_ASC_NODE,ARG_OF_PERICENTER,MEAN_ANOMALY,BSTAR,MEAN_MOTION_DOT,MEAN_MOTION_DDOT,TLE_LINE0,TLE_LINE1,TLE_LINE2,SEMIMAJOR_AXIS,PERIOD,APOGEE,PERIGEE,DECAYED
49762.0,STARLINK-3195,PAYLOAD,2023-04-20 15:08:29,15.08846432,0.0001371,53.2167,190.971,89.6068,270.5082,6.4081e-05,7.32e-06,0.0,0 STARLINK-3195,1 49762U 21115AQ  23110.63090107  .00000732  00000-0  64081-4 0  9996,2 49762  53.2167 190.9710 0001371  89.6068 270.5082 15.08846432 76558,6917.861,95.437,540.674,538.777,0.0
49762.0,STARLINK-3195,PAYLOAD,2023-04-21 11:48:31,15.08836633,0.0001638,53.2179,187.1082,87.9756,272.1423,5.0027e-05,5.08e-06,0.0,0 STARLINK-3195,1 49762U 21115AQ  23111.49203093  .00000508  00000-0  50027-4 0  9997,2 49762  53.2179 187.1082 0001638  87.9756 272.1423 15.08836633 76685,6917.891,95.438,540.889,538.623,0.0
49762.0,STARLINK-3195,PAYLOAD,2023-04-21 14:59:17,15.08841719,0.000143,53.2164,186.5091,88.6736,271.442,1.5676e-05,-3.8e-07,0.0,0 STARLINK-3195,1 49762U 21115AQ  23111.62450817 -.00000038  00000-0  15676-4 0  9990,2 49762  53.2164 186.5091 0001430  88.6736 271.4420 15.08841719 76701,6917.875,95.437,540.729,538.751,0.0
49762.0,STARLINK-3195,PAYLOAD,2023-04-22 05:17:45,15.08835696,0.0001306,53.2162,183.8338,92.7294,267.3847,0.00012322,1.673e-05,0.0,0 STARLINK-3195,1 49762U 21115AQ  23112.22066986  .00001673  00000-0  12322-3 0  9996,2 49762  53.2162 183.8338 0001306  92.7294 267.3847 15.08835696 76793,6917.894,95.438,540.662,538.855,0.0
49762.0,STARLINK-3195,PAYLOAD,2023-04-22 16:25:26,15.08871512,0.0001261,53.2163,181.7518,100.9675,259.1459,-0.00010358,-1.937e-05,0.0,0 STARLINK-3195,1 49762U 21115AQ  23112.68432963 -.00001937  00000-0 -10358-3 0  9990,2 49762  53.2163 181.7518 0001261 100.9675 259.1459 15.08871512 77972,6917.784,95.436,540.521,538.777,0.0
49762.0,STARLINK-3195,PAYLOAD,2023-04-23 05:08:34,15.08823156,0.0001259,53.2167,179.3732,87.1517,272.9619,-3.288e-05,-8.11e-06,0.0,0 STARLINK-3195,1 49762U 21115AQ  23113.21428519 -.00000811  00000-0 -32880-4 0  9997,2 49762  53.2167 179.3732 0001259  87.1517 272.9619 15.08823156 78057,6917.932,95.439,540.668,538.926,0.0
49762.0,STARLINK-3195,PAYLOAD,2023-04-23 13:05:29,15.08827233,0.0001603,53.2164,177.8862,82.0667,278.0507,-2.741e-06,-3.32e-06,0.0,0 STARLINK-3195,1 49762U 21115AQ  23113.54548498 -.00000332  00000-0 -27410-5 0  9994,2 49762  53.2164 177.8862 0001603  82.0667 278.0507 15.08827233 76998,6917.919,95.438,540.893,538.675,0.0
49762.0,STARLINK-3195,PAYLOAD,2023-04-23 14:40:52,15.08828701,0.0001601,53.2162,177.5883,87.226,272.8916,8.3825e-06,-1.55e-06,0.0,0 STARLINK-3195,1 49762U 21115AQ  23113.61172398 -.00000155  00000-0  83825-5 0  9998,2 49762  53.2162 177.5883 0001601  87.2260 272.8916 15.08828701 77000,6917.915,95.438,540.887,538.672,0.0
49762.0,STARLINK-3195,PAYLOAD,2023-04-24 03:23:56,15.08856526,0.0001281,53.2178,175.209,92.0974,268.0165,0.00025581,3.787e-05,0.0,0 STARLINK-3195,1 49762U 21115AQ  23114.14162330  .00003787  00000-0  25581-3 0  9998,2 49762  53.2178 175.2090 0001281  92.0974 268.0165 15.08856526 78192,6917.83,95.437,540.581,538.809,0.0
49762.0,STARLINK-3195,PAYLOAD,2023-04-24 20:53:11,15.08813825,0.0001228,53.2152,171.9394,110.8932,249.2191,-0.00062547,-0.00010221,0.0,0 STARLINK-3195,1 49762U 21115AQ  23114.87027157 -.00010221  00000-0 -62547-3 0  9991,2 49762  53.2152 171.9394 0001228 110.8932 249.2191 15.08813825 78306,6917.96,95.439,540.675,538.976,0.0
49762.0,STARLINK-3195,PAYLOAD,2023-04-25 12:47:03,15.0881322,0.0001288,53.2147,168.9652,115.4282,244.6844,-0.00044249,-7.318e-05,0.0,0 STARLINK-3195,1 49762U 21115AQ  23115.53267836 -.00007318  00000-0 -44249-3 0  9997,2 49762  53.2147 168.9652 0001288 115.4282 244.6844 15.08813220 78402,6917.962,95.439,540.718,538.936,0.0
49762.0,STARLINK-3195,PAYLOAD,2023-04-26 09:27:05,15.08822546,0.0001174,53.2157,165.1012,87.6558,272.4568,-0.00013037,-2.361e-05,0.0,0 STARLINK-3195,1 49762U 21115AQ  23116.39381015 -.00002361  00000-0 -13037-3 0  9992,2 49762  53.2157 165.1012 0001174  87.6558 272.4568 15.08822546 77426,6917.934,95.439,540.611,538.987,0.0
49762.0,STARLINK-3195,PAYLOAD,2023-04-26 20:34:47,15.08828494,0.000125,53.2138,163.019,110.6282,249.4844,0.00064554,9.998e-05,0.0,0 STARLINK-3195,1 49762U 21115AQ  23116.85749629  .00009998  00000-0  64554-3 0  9993,2 49762  53.2138 163.0190 0001250 110.6282 249.4844 15.08828494 77491,6917.916,95.438,540.645,538.916,0.0
49762.0,STARLINK-3195,PAYLOAD,2023-04-27 12:28:38,15.08858478,0.0001231,53.2147,160.044,111.5475,248.5648,0.00088007,0.00013753,0.0,0 STARLINK-3195,1 49762U 21115AQ  23117.51989030  .00013753  00000-0  88007-3 0  9992,2 49762  53.2147 160.0440 0001231 111.5475 248.5648 15.08858478 77597,6917.824,95.436,540.54,538.837,0.0
49762.0,STARLINK-3195,PAYLOAD,2023-04-27 14:04:01,15.08862492,0.0001225,53.2146,159.7467,110.8989,249.2134,0.00093689,0.00014663,0.0,0 STARLINK-3195,1 49762U 21115AQ  23117.58612908  .00014663  00000-0  93689-3 0  9999,2 49762  53.2146 159.7467 0001225 110.8989 249.2134 15.08862492 78719,6917.812,95.436,540.524,538.829,0.0
49762.0,STARLINK-3195,PAYLOAD,2023-04-28 05:57:52,15.08864717,0.0001326,53.2155,156.7728,106.2025,253.9113,0.00046279,7.09e-05,0.0,0 STARLINK-3195,1 49762U 21115AQ  23118.24852072  .00007090  00000-0  46279-3 0  9990,2 49762  53.2155 156.7728 0001326 106.2025 253.9113 15.08864717 78810,6917.805,95.436,540.587,538.753,0.0
49762.0,STARLINK-3195,PAYLOAD,2023-04-28 09:08:38,15.08866477,0.0001289,53.2156,156.1784,105.4905,254.623,0.00048319,7.416e-05,0.0,0 STARLINK-3195,1 49762U 21115AQ  23118.38099846  .00007416  00000-0  48319-3 0  9996,2 49762  53.2156 156.1784 0001289 105.4905 254.6230 15.08866477 77725,6917.799,95.436,540.556,538.773,0.0
49762.0,STARLINK-3195,PAYLOAD,2023-04-29 12:10:11,15.08847133,0.0001561,53.2162,151.1227,102.5653,257.5514,-8.1097e-05,-1.579e-05,0.0,0 STARLINK-3195,1 49762U 21115AQ  23119.50707475 -.00001579  00000-0 -81097-4 0  9992,2 49762  53.2162 151.1227 0001561 102.5653 257.5514 15.08847133 77893,6917.859,95.437,540.803,538.644,0.0
49762.0,STARLINK-3195,PAYLOAD,2023-04-29 13:45:34,15.08851353,0.0001271,53.2156,150.8259,105.1439,254.9694,8.0799e-06,-1.59e-06,0.0,0 STARLINK-3195,1 49762U 21115AQ  23119.57331280 -.00000159  00000-0  80799-5 0  9997,2 49762  53.2156 150.8259 0001271 105.1439 254.9694 15.08851353 79011,6917.846,95.437,540.59,538.831,0.0
49762.0,STARLINK-3195,PAYLOAD,2023-04-30 07:14:48,15.08844094,0.00013,53.2157,147.5546,104.1125,256.0011,-0.00010324,-1.931e-05,0.0,0 STARLINK-3195,1 49762U 21115AQ  23120.30195339 -.00001931  00000-0 -10324-3 0  9998,2 49762  53.2157 147.5546 0001300 104.1125 256.0011 15.08844094 78017,6917.868,95.437,540.632,538.834,0.0
49762.0,STARLINK-3195,PAYLOAD,2023-04-30 13:36:21,15.08845111,0.000142,53.2155,146.3646,113.7779,246.3362,-5.5324e-05,-1.168e-05,0.0,0 STARLINK-3195,1 49762U 21115AQ  23120.56691177 -.00001168  00000-0 -55324-4 0  9999,2 49762  53.2155 146.3646 0001420 113.7779 246.3362 15.08845111 79166,6917.865,95.437,540.712,538.747,0.0
49762.0,STARLINK-3195,PAYLOAD,2023-05-01 05:30:13,15.0883267,0.0001518,53.2154,143.3907,113.9085,246.2067,-3.5741e-05,-8.57e-06,0.0,0 STARLINK-3195,1 49762U 21115AQ  23121.22931965 -.00000857  00000-0 -35741-4 0  9990,2 49762  53.2154 143.3907 0001518 113.9085 246.2067 15.08832670 79260,6917.903,95.438,540.818,538.718,0.0
49762.0,STARLINK-3195,PAYLOAD,2023-05-01 10:16:22,15.08833386,0.0001469,53.2164,142.4988,113.1862,246.9285,1.3495e-05,-7.3e-07,0.0,0 STARLINK-3195,1 49762U 21115AQ  23121.42804369 -.00000073  00000-0  13495-4 0  9990,2 49762  53.2164 142.4988 0001469 113.1862 246.9285 15.08833386 78184,6917.901,95.438,540.782,538.749,0.0
49762.0,STARLINK-3195,PAYLOAD,2023-05-02 06:56:23,15.08840381,0.0001388,53.2167,138.6334,109.5344,250.5798,8.2845e-05,1.031e-05,0.0,0 STARLINK-3195,1 49762U 21115AQ  23122.28916061  .00001031  00000-0  82845-4 0  9997,2 49762  53.2167 138.6334 0001388 109.5344 250.5798 15.08840381 79424,6917.879,95.438,540.704,538.784,0.0
49762.0,STARLINK-3195,PAYLOAD,2023-05-02 10:07:09,15.08842414,0.0001229,53.2162,138.039,96.1267,263.9865,8.2389e-05,1.024e-05,0.0,0 STARLINK-3195,1 49762U 21115AQ  23122.42163976  .00001024  00000-0  82389-4 0  9997,2 49762  53.2162 138.0390 0001229  96.1267 263.9865 15.08842414 78335,6917.873,95.437,540.588,538.888,0.0
49762.0,STARLINK-3195,PAYLOAD,2023-05-03 09:57:56,15.0884378,0.0001123,53.216,133.5784,88.4965,271.6156,0.0001777,2.542e-05,0.0,0 STARLINK-3195,1 49762U 21115AQ  23123.41523884  .00002542  00000-0  17770-3 0  9992,2 49762  53.2160 133.5784 0001123  88.4965 271.6156 15.08843780 79597,6917.869,95.437,540.511,538.957,0.0
49762.0,STARLINK-3195,PAYLOAD,2023-05-04 03:27:11,15.08838321,0.0001229,53.2159,130.3084,82.8213,277.2919,3.6811e-05,2.98e-06,0.0,0 STARLINK-3195,1 49762U 21115AQ  23124.14388608  .00000298  00000-0  36811-4 0  9990,2 49762  53.2159 130.3084 0001229  82.8213 277.2919 15.08838321 79701,6917.886,95.438,540.601,538.9,0.0
49762.0,STARLINK-3195,PAYLOAD,2023-05-04 09:48:44,15.08839719,0.0001196,53.216,129.1189,84.695,275.4179,3.5447e-05,2.76e-06,0.0,0 STARLINK-3195,1 49762U 21115AQ  23124.40884491  .00000276  00000-0  35447-4 0  9990,2 49762  53.2160 129.1189 0001196  84.6950 275.4179 15.08839719 78637,6917.881,95.438,540.574,538.919,0.0
49762.0,STARLINK-3195,PAYLOAD,2023-05-05 06:28:44,15.08848258,0.0001197,53.2163,125.2528,84.9362,275.1767,8.5049e-05,1.066e-05,0.0,0 STARLINK-3195,1 49762U 21115AQ  23125.26995630  .00001066  00000-0  85049-4 0  9994,2 49762  53.2163 125.2528 0001197  84.9362 275.1767 15.08848258 79870,6917.855,95.437,540.548,538.892,0.0
49762.0,STARLINK-3195,PAYLOAD,2023-05-05 09:39:30,15.08849641,0.0001192,53.2162,124.6578,84.4625,275.6503,9.3959e-05,1.208e-05,0.0,0 STARLINK-3195,1 49762U 21115AQ  23125.40243458  .00001208  00000-0  93959-4 0  9991,2 49762  53.2162 124.6578 0001192  84.4625 275.6503 15.08849641 78788,6917.851,95.437,540.541,538.891,0.0
